ONEWEB-0228             
1 48780U 21045P   24016.58362153 -.00000039  00000+0 -13818-3 0  9992
2 48780  87.8971  74.8743 0001907 104.0260 256.1082 13.15550279128285
